[{"OBJECT_NAME":"COSMOS 2251 DEB","OBJECT_ID":"1993-036AJ","EPOCH":"2026-04-03T15:38:24.406368","MEAN_MOTION":14.28148394,"ECCENTRICITY":0.0077426,"INCLINATION":73.9806,"RA_OF_ASC_NODE":306.4464,"ARG_OF_PERICENTER":71.7867,"MEAN_ANOMALY":345.0603,"EPHEMERIS_TYPE":0,"CLASSIFICATION_TYPE":"U","NORAD_CAT_ID":33793,"ELEMENT_SET_NO":999,"REV_AT_EPOCH":88804,"BSTAR":0.00089591,"MEAN_MOTION_DOT":2.277e-5,"MEAN_MOTION_DDOT":0},{"OBJECT_NAME":"COSMOS 2251 DEB","OBJECT_ID":"1993-036AL","EPOCH":"2026-04-03T17:38:09.052800","MEAN_MOTION":15.11848771,"ECCENTRICITY":0.00317852,"INCLINATION":74.0298,"RA_OF_ASC_NODE":206.0045,"ARG_OF_PERICENTER":264.6603,"MEAN_ANOMALY":217.3399,"EPHEMERIS_TYPE":0,"CLASSIFICATION_TYPE":"U","NORAD_CAT_ID":33795,"ELEMENT_SET_NO":999,"REV_AT_EPOCH":91710,"BSTAR":0.0028447216,"MEAN_MOTION_DOT":0.0004954,"MEAN_MOTION_DDOT":0},{"OBJECT_NAME":"COSMOS 2251 DEB","OBJECT_ID":"1993-036AN","EPOCH":"2026-04-04T06:17:55.859712","MEAN_MOTION":14.58434081,"ECCENTRICITY":0.00630133,"INCLINATION":74.0476,"RA_OF_ASC_NODE":181.0048,"ARG_OF_PERICENTER":240.6432,"MEAN_ANOMALY":179.6358,"EPHEMERIS_TYPE":0,"CLASSIFICATION_TYPE":"U","NORAD_CAT_ID":33797,"ELEMENT_SET_NO":999,"REV_AT_EPOCH":90625,"BSTAR":0.00079108492,"MEAN_MOTION_DOT":3.742e-5,"MEAN_MOTION_DDOT":0},{"OBJECT_NAME":"COSMOS 2251 DEB","OBJECT_ID":"1993-036AP","EPOCH":"2026-04-04T05:39:51.154272","MEAN_MOTION":14.44758695,"ECCENTRICITY":0.00909203,"INCLINATION":74.0277,"RA_OF_ASC_NODE":286.342,"ARG_OF_PERICENTER":19.3763,"MEAN_ANOMALY":98.9531,"EPHEMERIS_TYPE":0,"CLASSIFICATION_TYPE":"U","NORAD_CAT_ID":33798,"ELEMENT_SET_NO":999,"REV_AT_EPOCH":90218,"BSTAR":0.00016496977,"MEAN_MOTION_DOT":5.74e-6,"MEAN_MOTION_DDOT":0},{"OBJECT_NAME":"COSMOS 2251 DEB","OBJECT_ID":"1993-036AQ","EPOCH":"2026-04-03T19:02:15.415872","MEAN_MOTION":14.83015427,"ECCENTRICITY":0.0024513,"INCLINATION":74.0319,"RA_OF_ASC_NODE":220.6344,"ARG_OF_PERICENTER":265.7743,"MEAN_ANOMALY":214.594,"EPHEMERIS_TYPE":0,"CLASSIFICATION_TYPE":"U","NORAD_CAT_ID":33799,"ELEMENT_SET_NO":999,"REV_AT_EPOCH":90470,"BSTAR":0.0042571,"MEAN_MOTION_DOT":0.00034942,"MEAN_MOTION_DDOT":0},{"OBJECT_NAME":"COSMOS 2251 DEB","OBJECT_ID":"1993-036AW","EPOCH":"2026-04-04T01:48:00.044928","MEAN_MOTION":14.58154945,"ECCENTRICITY":0.00626841,"INCLINATION":74.0281,"RA_OF_ASC_NODE":97.5802,"ARG_OF_PERICENTER":257.2816,"MEAN_ANOMALY":102.1337,"EPHEMERIS_TYPE":0,"CLASSIFICATION_TYPE":"U","NORAD_CAT_ID":33805,"ELEMENT_SET_NO":999,"REV_AT_EPOCH":90864,"BSTAR":0.00037446477,"MEAN_MOTION_DOT":1.742e-5,"MEAN_MOTION_DDOT":0},{"OBJECT_NAME":"COSMOS 2251 DEB","OBJECT_ID":"1993-036BC","EPOCH":"2026-04-04T06:24:31.410144","MEAN_MOTION":15.10711069,"ECCENTRICITY":0.00269149,"INCLINATION":73.8335,"RA_OF_ASC_NODE":68.3787,"ARG_OF_PERICENTER":138.5212,"MEAN_ANOMALY":334.6553,"EPHEMERIS_TYPE":0,"CLASSIFICATION_TYPE":"U","NORAD_CAT_ID":33811,"ELEMENT_SET_NO":999,"REV_AT_EPOCH":91714,"BSTAR":0.0030873642,"MEAN_MOTION_DOT":0.0005194,"MEAN_MOTION_DDOT":0},{"OBJECT_NAME":"COSMOS 2251 DEB","OBJECT_ID":"1993-036BH","EPOCH":"2026-04-03T22:18:29.943936","MEAN_MOTION":13.81982209,"ECCENTRICITY":0.02650192,"INCLINATION":73.8933,"RA_OF_ASC_NODE":275.2035,"ARG_OF_PERICENTER":266.9514,"MEAN_ANOMALY":90.1258,"EPHEMERIS_TYPE":0,"CLASSIFICATION_TYPE":"U","NORAD_CAT_ID":33816,"ELEMENT_SET_NO":999,"REV_AT_EPOCH":86223,"BSTAR":0.00055975895,"MEAN_MOTION_DOT":7.6e-6,"MEAN_MOTION_DDOT":0},{"OBJECT_NAME":"COSMOS 2251 DEB","OBJECT_ID":"1993-036BK","EPOCH":"2026-04-03T23:23:27.656160","MEAN_MOTION":15.25599182,"ECCENTRICITY":0.00160874,"INCLINATION":74.076,"RA_OF_ASC_NODE":292.1079,"ARG_OF_PERICENTER":228.5947,"MEAN_ANOMALY":131.3872,"EPHEMERIS_TYPE":0,"CLASSIFICATION_TYPE":"U","NORAD_CAT_ID":33818,"ELEMENT_SET_NO":999,"REV_AT_EPOCH":91566,"BSTAR":0.0041530638,"MEAN_MOTION_DOT":0.00107432,"MEAN_MOTION_DDOT":0},{"OBJECT_NAME":"COSMOS 2251 DEB","OBJECT_ID":"1993-036BL","EPOCH":"2026-04-04T05:37:57.217728","MEAN_MOTION":14.32661924,"ECCENTRICITY":0.00906533,"INCLINATION":74.1825,"RA_OF_ASC_NODE":6.2827,"ARG_OF_PERICENTER":196.2076,"MEAN_ANOMALY":322.135,"EPHEMERIS_TYPE":0,"CLASSIFICATION_TYPE":"U","NORAD_CAT_ID":33819,"ELEMENT_SET_NO":999,"REV_AT_EPOCH":89106,"BSTAR":0.00090968778,"MEAN_MOTION_DOT":2.564e-5,"MEAN_MOTION_DDOT":0},{"OBJECT_NAME":"COSMOS 2251 DEB","OBJECT_ID":"1993-036BN","EPOCH":"2026-04-04T04:52:25.987584","MEAN_MOTION":15.33641859,"ECCENTRICITY":0.00428063,"INCLINATION":74.0263,"RA_OF_ASC_NODE":263.5777,"ARG_OF_PERICENTER":264.3821,"MEAN_ANOMALY":95.2501,"EPHEMERIS_TYPE":0,"CLASSIFICATION_TYPE":"U","NORAD_CAT_ID":33821,"ELEMENT_SET_NO":999,"REV_AT_EPOCH":76720,"BSTAR":0.0017768464,"MEAN_MOTION_DOT":0.00059953,"MEAN_MOTION_DDOT":0},{"OBJECT_NAME":"COSMOS 2251 DEB","OBJECT_ID":"1993-036BP","EPOCH":"2026-04-04T03:21:34.568352","MEAN_MOTION":14.13848567,"ECCENTRICITY":0.01487781,"INCLINATION":74.0712,"RA_OF_ASC_NODE":355.1205,"ARG_OF_PERICENTER":14.8162,"MEAN_ANOMALY":101.6946,"EPHEMERIS_TYPE":0,"CLASSIFICATION_TYPE":"U","NORAD_CAT_ID":33822,"ELEMENT_SET_NO":999,"REV_AT_EPOCH":87642,"BSTAR":0.0026049509,"MEAN_MOTION_DOT":5.465e-5,"MEAN_MOTION_DDOT":0},{"OBJECT_NAME":"COSMOS 2251 DEB","OBJECT_ID":"1993-036BQ","EPOCH":"2026-04-03T17:55:25.102848","MEAN_MOTION":13.99275971,"ECCENTRICITY":0.02076204,"INCLINATION":73.8096,"RA_OF_ASC_NODE":312.9832,"ARG_OF_PERICENTER":58.9086,"MEAN_ANOMALY":15.2003,"EPHEMERIS_TYPE":0,"CLASSIFICATION_TYPE":"U","NORAD_CAT_ID":33823,"ELEMENT_SET_NO":999,"REV_AT_EPOCH":87176,"BSTAR":0.0012200129,"MEAN_MOTION_DOT":2.108e-5,"MEAN_MOTION_DDOT":0},{"OBJECT_NAME":"COSMOS 2251 DEB","OBJECT_ID":"1993-036BS","EPOCH":"2026-04-04T06:24:56.323584","MEAN_MOTION":14.72005943,"ECCENTRICITY":0.00772257,"INCLINATION":73.9834,"RA_OF_ASC_NODE":168.5913,"ARG_OF_PERICENTER":109.1274,"MEAN_ANOMALY":307.997,"EPHEMERIS_TYPE":0,"CLASSIFICATION_TYPE":"U","NORAD_CAT_ID":33825,"ELEMENT_SET_NO":999,"REV_AT_EPOCH":90534,"BSTAR":0.0017101254,"MEAN_MOTION_DOT":0.00011238,"MEAN_MOTION_DDOT":0},{"OBJECT_NAME":"COSMOS 2251 DEB","OBJECT_ID":"1993-036BT","EPOCH":"2026-04-04T06:23:28.758912","MEAN_MOTION":14.53361176,"ECCENTRICITY":0.00833837,"INCLINATION":74.0656,"RA_OF_ASC_NODE":198.0807,"ARG_OF_PERICENTER":215.8915,"MEAN_ANOMALY":177.3362,"EPHEMERIS_TYPE":0,"CLASSIFICATION_TYPE":"U","NORAD_CAT_ID":33826,"ELEMENT_SET_NO":999,"REV_AT_EPOCH":89403,"BSTAR":0.0029362655,"MEAN_MOTION_DOT":0.00012778,"MEAN_MOTION_DDOT":0},{"OBJECT_NAME":"COSMOS 2251 DEB","OBJECT_ID":"1993-036BV","EPOCH":"2026-04-04T07:10:21.709632","MEAN_MOTION":14.44735314,"ECCENTRICITY":0.00270929,"INCLINATION":74.0492,"RA_OF_ASC_NODE":28.709,"ARG_OF_PERICENTER":76.8786,"MEAN_ANOMALY":80.0695,"EPHEMERIS_TYPE":0,"CLASSIFICATION_TYPE":"U","NORAD_CAT_ID":33828,"ELEMENT_SET_NO":999,"REV_AT_EPOCH":89938,"BSTAR":0.00077829356,"MEAN_MOTION_DOT":2.687e-5,"MEAN_MOTION_DDOT":0}]
