COSMOS 2251 DEB         
1 33793U 93036AJ  26093.65167137  .00002277  00000+0  89591-3 0  9994
2 33793  73.9806 306.4464 0077426  71.7867 345.0603 14.28148394888042
COSMOS 2251 DEB         
1 33795U 93036AL  26093.73482700  .00049540  00000+0  28447-2 0  9997
2 33795  74.0298 206.0045 0031785 264.6603 217.3399 15.11848771917102
COSMOS 2251 DEB         
1 33797U 93036AN  26094.26245208  .00003742  00000+0  79108-3 0  9993
2 33797  74.0476 181.0048 0063013 240.6432 179.6358 14.58434081906254
COSMOS 2251 DEB         
1 33798U 93036AP  26094.23600873  .00000574  00000+0  16497-3 0  9996
2 33798  74.0277 286.3420 0090920  19.3763  98.9531 14.44758695902181
COSMOS 2251 DEB         
1 33799U 93036AQ  26093.79323398  .00034942  00000+0  42571-2 0  9998
2 33799  74.0319 220.6344 0024513 265.7743 214.5940 14.83015427904707
COSMOS 2251 DEB         
1 33805U 93036AW  26094.07500052  .00001742  00000+0  37446-3 0  9990
2 33805  74.0281  97.5802 0062684 257.2816 102.1337 14.58154945908641
COSMOS 2251 DEB         
1 33811U 93036BC  26094.26703021  .00051940  00000+0  30874-2 0  9991
2 33811  73.8335  68.3787 0026914 138.5212 334.6553 15.10711069917142
COSMOS 2251 DEB         
1 33816U 93036BH  26093.92951324  .00000760  00000+0  55976-3 0  9994
2 33816  73.8933 275.2035 0265019 266.9514  90.1258 13.81982209862235
COSMOS 2251 DEB         
1 33818U 93036BK  26093.97462565  .00107432  00000+0  41531-2 0  9990
2 33818  74.0760 292.1079 0016087 228.5947 131.3872 15.25599182915667
COSMOS 2251 DEB         
1 33819U 93036BL  26094.23469002  .00002564  00000+0  90969-3 0  9994
2 33819  74.1825   6.2827 0090653 196.2076 322.1350 14.32661924891060
COSMOS 2251 DEB         
1 33821U 93036BN  26094.20307856  .00059953  00000+0  17768-2 0  9991
2 33821  74.0263 263.5777 0042806 264.3821  95.2501 15.33641859767203
COSMOS 2251 DEB         
1 33822U 93036BP  26094.13998343  .00005465  00000+0  26050-2 0  9994
2 33822  74.0712 355.1205 0148778  14.8162 101.6946 14.13848567876420
COSMOS 2251 DEB         
1 33823U 93036BQ  26093.74681832  .00002108  00000+0  12200-2 0  9996
2 33823  73.8096 312.9832 0207620  58.9086  15.2003 13.99275971871768
COSMOS 2251 DEB         
1 33825U 93036BS  26094.26731856  .00011238  00000+0  17101-2 0  9997
2 33825  73.9834 168.5913 0077225 109.1274 307.9970 14.72005943905348
COSMOS 2251 DEB         
1 33826U 93036BT  26094.26630508  .00012778  00000+0  29363-2 0  9993
2 33826  74.0656 198.0807 0083383 215.8915 177.3362 14.53361176894031
COSMOS 2251 DEB         
1 33828U 93036BV  26094.29886238  .00002687  00000+0  77829-3 0  9990
2 33828  74.0492  28.7090 0027092  76.8786  80.0695 14.44735314899381
